start=new Date('2021-12-15T00:00:00.000Z').valueOf();
sats=[{"LAUNCH_DATE":"2020-09-03","RCS_SIZE":"LARGE","BSTAR":"0.00010548000000","PERIAPSIS":"546.404","MEAN_MOTION_DOT":"0.00001290","ARG_OF_PERICENTER":"80.0035","OBJECT_NAME":"STARLINK-1550","OBJECT_TYPE":"PAYLOAD","SEMIMAJOR_AXIS":"6925.358","CLASSIFICATION_TYPE":"U","EPHEMERIS_TYPE":"0","APOAPSIS":"548.042","MEAN_ELEMENT_THEORY":"SGP4","REF_FRAME":"TEME","ELEMENT_SET_NO":"999","TLE_LINE2":"2 46365  53.0553  72.5788 0001183  80.0035 280.1088 15.06396871 71891","SITE":"AFETR","MEAN_MOTION_DDOT":"0.0000000000000","GP_ID":"191694993","CENTER_NAME":"EARTH","DECAY_DATE":null,"FILE":"3240057","MEAN_ANOMALY":"280.1088","ECCENTRICITY":"0.00011830","REV_AT_EPOCH":"7189","NORAD_CAT_ID":"46365","TLE_LINE1":"1 46365U 20062AS  21348.53403712  .00001290  00000-0  10548-3 0  9990","MEAN_MOTION":"15.06396871","OBJECT_ID":"2020-062AS","RA_OF_ASC_NODE":"72.5788","EPOCH":"2021-12-14T12:49:00.807168","COUNTRY_CODE":"US","TIME_SYSTEM":"UTC","PERIOD":"95.592","INCLINATION":"53.0553"},{"TIME_SYSTEM":"UTC","EPOCH":"2021-12-14T12:33:05.471136","COUNTRY_CODE":"US","INCLINATION":"53.0554","PERIOD":"95.592","TLE_LINE1":"1 46366U 20062AT  21348.52297999  .00001143  00000-0  95631-4 0  9992","MEAN_MOTION":"15.06398420","OBJECT_ID":"2020-062AT","RA_OF_ASC_NODE":"72.6315","NORAD_CAT_ID":"46366","REV_AT_EPOCH":"7189","ECCENTRICITY":"0.00011760","CENTER_NAME":"EARTH","GP_ID":"191695743","MEAN_ANOMALY":"281.7750","FILE":"3240057","DECAY_DATE":null,"MEAN_ELEMENT_THEORY":"SGP4","REF_FRAME":"TEME","APOAPSIS":"548.033","MEAN_MOTION_DDOT":"0.0000000000000","SITE":"AFETR","TLE_LINE2":"2 46366  53.0554  72.6315 0001176  78.3371 281.7750 15.06398420 71890","ELEMENT_SET_NO":"999","OBJECT_TYPE":"PAYLOAD","SEMIMAJOR_AXIS":"6925.353","CLASSIFICATION_TYPE":"U","EPHEMERIS_TYPE":"0","BSTAR":"0.00009563100000","RCS_SIZE":"LARGE","OBJECT_NAME":"STARLINK-1651","ARG_OF_PERICENTER":"78.3371","MEAN_MOTION_DOT":"0.00001143","PERIAPSIS":"546.404","LAUNCH_DATE":"2020-09-03"},{"OBJECT_NAME":"STARLINK-1658","ARG_OF_PERICENTER":"93.5509","PERIAPSIS":"546.206","MEAN_MOTION_DOT":"0.00001482","BSTAR":"0.00011838000000","RCS_SIZE":"LARGE","LAUNCH_DATE":"2020-09-03","MEAN_MOTION_DDOT":"0.0000000000000","TLE_LINE2":"2 46368  53.0560  97.6445 0001439  93.5509 266.5644 15.06403664 71557","SITE":"AFETR","ELEMENT_SET_NO":"999","MEAN_ELEMENT_THEORY":"SGP4","REF_FRAME":"TEME","APOAPSIS":"548.199","SEMIMAJOR_AXIS":"6925.337","CLASSIFICATION_TYPE":"U","EPHEMERIS_TYPE":"0","OBJECT_TYPE":"PAYLOAD","NORAD_CAT_ID":"46368","REV_AT_EPOCH":"7155","ECCENTRICITY":"0.00014390","MEAN_ANOMALY":"266.5644","FILE":"3240057","DECAY_DATE":null,"GP_ID":"191693992","CENTER_NAME":"EARTH","INCLINATION":"53.0560","PERIOD":"95.592","TIME_SYSTEM":"UTC","EPOCH":"2021-12-14T12:32:26.018304","COUNTRY_CODE":"US","OBJECT_ID":"2020-062AV","RA_OF_ASC_NODE":"97.6445","MEAN_MOTION":"15.06403664","TLE_LINE1":"1 46368U 20062AV  21348.52252336  .00001482  00000-0  11838-3 0  9992"},{"CENTER_NAME":"EARTH","GP_ID":"191694242","DECAY_DATE":null,"MEAN_ANOMALY":"273.2736","FILE":"3240057","ECCENTRICITY":"0.00012720","NORAD_CAT_ID":"46370","REV_AT_EPOCH":"7154","TLE_LINE1":"1 46370U 20062AX  21348.48565882  .00001026  00000-0  87785-4 0  9992","MEAN_MOTION":"15.06399617","OBJECT_ID":"2020-062AX","RA_OF_ASC_NODE":"97.8085","TIME_SYSTEM":"UTC","COUNTRY_CODE":"US","EPOCH":"2021-12-14T11:39:20.922048","INCLINATION":"53.0561","PERIOD":"95.592","LAUNCH_DATE":"2020-09-03","BSTAR":"0.00008778500000","RCS_SIZE":"LARGE","MEAN_MOTION_DOT":"0.00001026","PERIAPSIS":"546.334","OBJECT_NAME":"STARLINK-1670","ARG_OF_PERICENTER":"86.8399","OBJECT_TYPE":"PAYLOAD","SEMIMAJOR_AXIS":"6925.350","EPHEMERIS_TYPE":"0","CLASSIFICATION_TYPE":"U","APOAPSIS":"548.096","MEAN_ELEMENT_THEORY":"SGP4","REF_FRAME":"TEME","SITE":"AFETR","TLE_LINE2":"2 46370  53.0561  97.8085 0001272  86.8399 273.2736 15.06399617 71548","ELEMENT_SET_NO":"999","MEAN_MOTION_DDOT":"0.0000000000000"},{"GP_ID":"191695493","CENTER_NAME":"EARTH","DECAY_DATE":null,"MEAN_ANOMALY":"259.0915","FILE":"3240057","ECCENTRICITY":"0.00017450","NORAD_CAT_ID":"46371","REV_AT_EPOCH":"7156","TLE_LINE1":"1 46371U 20062AY  21348.61098471  .00001260  00000-0  10346-3 0  9991","MEAN_MOTION":"15.06397866","RA_OF_ASC_NODE":"97.2395","OBJECT_ID":"2020-062AY","TIME_SYSTEM":"UTC","COUNTRY_CODE":"US","EPOCH":"2021-12-14T14:39:49.078944","INCLINATION":"53.0539","PERIOD":"95.592","LAUNCH_DATE":"2020-09-03","BSTAR":"0.00010346000000","RCS_SIZE":"LARGE","PERIAPSIS":"546.012","MEAN_MOTION_DOT":"0.00001260","OBJECT_NAME":"STARLINK-1688","ARG_OF_PERICENTER":"101.0270","OBJECT_TYPE":"PAYLOAD","EPHEMERIS_TYPE":"0","SEMIMAJOR_AXIS":"6925.355","CLASSIFICATION_TYPE":"U","APOAPSIS":"548.429","REF_FRAME":"TEME","MEAN_ELEMENT_THEORY":"SGP4","SITE":"AFETR","TLE_LINE2":"2 46371  53.0539  97.2395 0001745 101.0270 259.0915 15.06397866 71562","ELEMENT_SET_NO":"999","MEAN_MOTION_DDOT":"0.0000000000000"},{"LAUNCH_DATE":"2020-09-03","ARG_OF_PERICENTER":"102.4363","OBJECT_NAME":"STARLINK-1689","PERIAPSIS":"545.993","MEAN_MOTION_DOT":"0.00000775","RCS_SIZE":"LARGE","BSTAR":"0.00007094600000","SEMIMAJOR_AXIS":"6925.360","EPHEMERIS_TYPE":"0","CLASSIFICATION_TYPE":"U","OBJECT_TYPE":"PAYLOAD","MEAN_MOTION_DDOT":"0.0000000000000","ELEMENT_SET_NO":"999","TLE_LINE2":"2 46372  53.0539 116.8932 0001779 102.4363 257.6825 15.06396317 71477","SITE":"AFETR","MEAN_ELEMENT_THEORY":"SGP4","REF_FRAME":"TEME","APOAPSIS":"548.457","FILE":"3240149","MEAN_ANOMALY":"257.6825","DECAY_DATE":null,"CENTER_NAME":"EARTH","GP_ID":"191698846","REV_AT_EPOCH":"7147","NORAD_CAT_ID":"46372","ECCENTRICITY":"0.00017790","RA_OF_ASC_NODE":"116.8932","OBJECT_ID":"2020-062AZ","MEAN_MOTION":"15.06396317","TLE_LINE1":"1 46372U 20062AZ  21348.68655044  .00000775  00000-0  70946-4 0  9997","INCLINATION":"53.0539","PERIOD":"95.592","EPOCH":"2021-12-14T16:28:37.958016","COUNTRY_CODE":"US","TIME_SYSTEM":"UTC"},{"SITE":"AFETR","TLE_LINE2":"2 46374  53.0561  47.4357 0004444 122.0938 238.0483 15.06394095 72422","ELEMENT_SET_NO":"999","MEAN_MOTION_DDOT":"0.0000000000000","APOAPSIS":"550.309","MEAN_ELEMENT_THEORY":"SGP4","REF_FRAME":"TEME","SEMIMAJOR_AXIS":"6925.367","EPHEMERIS_TYPE":"0","CLASSIFICATION_TYPE":"U","OBJECT_TYPE":"PAYLOAD","MEAN_MOTION_DOT":"0.00001224","PERIAPSIS":"544.154","OBJECT_NAME":"STARLINK-1711","ARG_OF_PERICENTER":"122.0938","BSTAR":"0.00010112000000","RCS_SIZE":"LARGE","LAUNCH_DATE":"2020-09-03","INCLINATION":"53.0561","PERIOD":"95.593","TIME_SYSTEM":"UTC","EPOCH":"2021-12-14T13:37:27.844032","COUNTRY_CODE":"US","MEAN_MOTION":"15.06394095","RA_OF_ASC_NODE":"47.4357","OBJECT_ID":"2020-062BB","TLE_LINE1":"1 46374U 20062BB  21348.56768338  .00001224  00000-0  10112-3 0  9995","ECCENTRICITY":"0.00044440","NORAD_CAT_ID":"46374","REV_AT_EPOCH":"7242","DECAY_DATE":null,"MEAN_ANOMALY":"238.0483","FILE":"3240117","CENTER_NAME":"EARTH","GP_ID":"191698865"},{"SEMIMAJOR_AXIS":"6925.338","CLASSIFICATION_TYPE":"U","EPHEMERIS_TYPE":"0","OBJECT_TYPE":"PAYLOAD","TLE_LINE2":"2 46375  53.0548  72.6615 0001214  77.1892 282.9233 15.06403345 71896","SITE":"AFETR","ELEMENT_SET_NO":"999","MEAN_MOTION_DDOT":"0.0000000000000","APOAPSIS":"548.044","MEAN_ELEMENT_THEORY":"SGP4","REF_FRAME":"TEME","LAUNCH_DATE":"2020-09-03","PERIAPSIS":"546.363","MEAN_MOTION_DOT":"0.00001020","OBJECT_NAME":"STARLINK-1724","ARG_OF_PERICENTER":"77.1892","BSTAR":"0.00008734400000","RCS_SIZE":"LARGE","RA_OF_ASC_NODE":"72.6615","MEAN_MOTION":"15.06403345","OBJECT_ID":"2020-062BC","TLE_LINE1":"1 46375U 20062BC  21348.51560774  .00001020  00000-0  87344-4 0  9991","PERIOD":"95.592","INCLINATION":"53.0548","TIME_SYSTEM":"UTC","COUNTRY_CODE":"US","EPOCH":"2021-12-14T12:22:28.508736","DECAY_DATE":null,"MEAN_ANOMALY":"282.9233","FILE":"3240057","GP_ID":"191694742","CENTER_NAME":"EARTH","ECCENTRICITY":"0.00012140","NORAD_CAT_ID":"46375","REV_AT_EPOCH":"7189"},{"TLE_LINE1":"1 46376U 20062BD  21348.53035853 -.00000465  00000-0 -12353-4 0  9991","MEAN_MOTION":"15.06399435","OBJECT_ID":"2020-062BD","RA_OF_ASC_NODE":"72.5988","TIME_SYSTEM":"UTC","EPOCH":"2021-12-14T12:43:42.976992","COUNTRY_CODE":"US","INCLINATION":"53.0542","PERIOD":"95.592","CENTER_NAME":"EARTH","GP_ID":"191698446","MEAN_ANOMALY":"284.8211","FILE":"3240123","DECAY_DATE":null,"NORAD_CAT_ID":"46376","REV_AT_EPOCH":"7207","ECCENTRICITY":"0.00012340","OBJECT_TYPE":"PAYLOAD","CLASSIFICATION_TYPE":"U","SEMIMAJOR_AXIS":"6925.350","EPHEMERIS_TYPE":"0","MEAN_ELEMENT_THEORY":"SGP4","REF_FRAME":"TEME","APOAPSIS":"548.070","MEAN_MOTION_DDOT":"0.0000000000000","SITE":"AFETR","TLE_LINE2":"2 46376  53.0542  72.5988 0001234  75.2914 284.8211 15.06399435 72071","ELEMENT_SET_NO":"999","LAUNCH_DATE":"2020-09-03","BSTAR":"-0.00001235300000","RCS_SIZE":"LARGE","OBJECT_NAME":"STARLINK-1742","ARG_OF_PERICENTER":"75.2914","PERIAPSIS":"546.361","MEAN_MOTION_DOT":"-0.00000465"},{"TLE_LINE1":"1 46378U 20062BF  21348.55688998  .00351493  00000-0  53546-2 0  9994","OBJECT_ID":"2020-062BF","MEAN_MOTION":"15.52735052","RA_OF_ASC_NODE":"65.6023","TIME_SYSTEM":"UTC","EPOCH":"2021-12-14T13:21:55.294272","COUNTRY_CODE":"US","PERIOD":"92.740","INCLINATION":"53.0542","GP_ID":"191698454","CENTER_NAME":"EARTH","DECAY_DATE":null,"MEAN_ANOMALY":"297.8552","FILE":"3240134","ECCENTRICITY":"0.00023220","NORAD_CAT_ID":"46378","REV_AT_EPOCH":"7216","OBJECT_TYPE":"PAYLOAD","SEMIMAJOR_AXIS":"6786.882","CLASSIFICATION_TYPE":"U","EPHEMERIS_TYPE":"0","APOAPSIS":"410.322","MEAN_ELEMENT_THEORY":"SGP4","REF_FRAME":"TEME","SITE":"AFETR","TLE_LINE2":"2 46378  53.0542  65.6023 0002322  62.2692 297.8552 15.52735052 72166","ELEMENT_SET_NO":"999","MEAN_MOTION_DDOT":"0.0000000000000","LAUNCH_DATE":"2020-09-03","BSTAR":"0.00535460000000","RCS_SIZE":"LARGE","PERIAPSIS":"407.171","MEAN_MOTION_DOT":"0.00351493","OBJECT_NAME":"STARLINK-1751","ARG_OF_PERICENTER":"62.2692"}];
